OBJECT_NAME,OBJECT_ID,EPOCH,MEAN_MOTION,ECCENTRICITY,INCLINATION,RA_OF_ASC_NODE,ARG_OF_PERICENTER,MEAN_ANOMALY,EPHEMERIS_TYPE,CLASSIFICATION_TYPE,NORAD_CAT_ID,ELEMENT_SET_NO,REV_AT_EPOCH,BSTAR,MEAN_MOTION_DOT,MEAN_MOTION_DDOT
GLOBALSTAR M069,2007-020C,2026-06-08T12:52:17.908032,12.23470905,.000251,52.0042,276.6118,130.2556,313.1798,0,U,31573,999,87774,.8153E-4,-.84E-6,0
GLOBALSTAR M072,2007-020D,2026-06-08T01:56:08.492640,11.91658483,.00013731,51.9909,124.4888,306.8467,133.3638,0,U,31574,999,87389,.20806068E-3,-.69E-6,0
GLOBALSTAR M066,2007-048C,2026-06-07T23:34:01.669728,12.30388743,.00053137,51.9587,84.3367,24.4172,56.6252,0,U,32265,999,85909,-.21077694E-3,-.119E-5,0
GLOBALSTAR M079,2010-054A,2026-06-08T02:42:56.997216,12.62265970,.00004878,52.0016,136.2918,0.5369,78.3475,0,U,37188,999,72140,.63574091E-4,-.92E-6,0
GLOBALSTAR M074,2010-054B,2026-06-08T04:54:05.892768,12.62268412,.00003432,51.9993,135.2810,45.3805,327.7188,0,U,37189,999,72202,.38126856E-4,-.97E-6,0
GLOBALSTAR M076,2010-054C,2026-06-08T06:00:37.450944,12.62261826,.000054,52.0006,135.3424,31.9161,71.5071,0,U,37190,999,72174,.50742E-4,-.95E-6,0
GLOBALSTAR M077,2010-054D,2026-06-07T21:39:29.634048,11.67547620,.00028805,51.9933,202.8631,155.8900,14.9562,0,U,37191,999,72005,-.59370241E-4,-.81E-6,0
GLOBALSTAR M075,2010-054E,2026-06-08T08:14:30.529824,12.62267304,.0000054,51.9920,177.1208,152.8748,312.9585,0,U,37192,999,72082,.3126E-5,-.103E-5,0
GLOBALSTAR M073,2010-054F,2026-06-08T12:27:22.487328,12.62262138,.0000752,52.0059,90.6776,30.3304,152.5247,0,U,37193,999,72283,.29414E-4,-.99E-6,0
GLOBALSTAR M083,2011-033A,2026-06-08T10:48:23.942304,12.62262852,.0000828,51.9873,39.1278,55.0686,116.7097,0,U,37739,999,69184,-.21938E-4,-.108E-5,0
GLOBALSTAR M088,2011-033B,2026-06-08T04:28:52.752288,12.62268578,.00008428,52.0229,306.3380,112.7304,59.0579,0,U,37740,999,68735,.92800544E-4,-.87E-6,0
GLOBALSTAR M091,2011-033C,2026-06-08T11:54:42.688224,12.62263741,.0000517,52.0004,268.3737,137.4442,303.0138,0,U,37741,999,68818,.66362E-4,-.92E-6,0
GLOBALSTAR M085,2011-033D,2026-06-08T11:43:03.619776,12.62263924,.0000198,52.0112,219.6834,183.0147,280.7564,0,U,37742,999,68869,.39541E-4,-.97E-6,0
GLOBALSTAR M081,2011-033E,2026-06-08T12:22:38.063712,12.62264781,.0000239,51.9942,222.0459,129.7042,338.5925,0,U,37743,999,68884,.14917E-4,-.101E-5,0
GLOBALSTAR M089,2011-033F,2026-06-08T05:34:07.910400,12.62266995,.0000371,51.9904,177.0697,103.3264,336.0423,0,U,37744,999,68965,.61663E-4,-.93E-6,0
GLOBALSTAR M084,2011-080A,2026-06-08T10:13:39.802368,12.62267499,.0001024,52.0026,43.9537,72.4812,109.3735,0,U,38040,999,66765,.16057E-4,-.101E-5,0
GLOBALSTAR M080,2011-080B,2026-06-08T09:31:05.596320,12.62269277,.0000288,52.0075,45.7586,67.4343,110.0133,0,U,38041,999,66777,.29579E-4,-.98E-6,0
GLOBALSTAR M082,2011-080C,2026-06-07T20:35:29.999904,12.62269896,.00005412,52.0098,2.8982,85.6173,93.2689,0,U,38042,999,66841,.72850819E-4,-.91E-6,0
GLOBALSTAR M092,2011-080D,2026-06-08T13:04:59.738304,12.62266878,.0000545,52.0084,91.2024,51.4535,130.4591,0,U,38043,999,66695,.6422E-4,-.92E-6,0
GLOBALSTAR M090,2011-080E,2026-06-07T20:21:15.742368,12.62268990,.00008014,52.0144,356.8814,79.5657,293.3025,0,U,38044,999,66853,.76868325E-4,-.9E-6,0
GLOBALSTAR M086,2011-080F,2026-06-08T08:14:08.000160,12.62286562,.0001632,51.9915,355.3189,51.8886,312.0431,0,U,38045,999,66854,.10051E-3,-.86E-6,0
GLOBALSTAR M097,2013-005A,2026-06-08T10:51:36.020736,12.62247114,.000047,52.0053,269.9252,121.1355,238.9558,0,U,39072,999,61580,-.1113E-3,-.124E-5,0
GLOBALSTAR M093,2013-005B,2026-06-08T10:13:12.780768,12.62265703,.0000325,52.0110,263.3498,107.3821,252.7081,0,U,39073,999,61575,.54862E-4,-.94E-6,0
GLOBALSTAR M094,2013-005C,2026-06-08T08:19:04.476576,12.62268544,.0000186,51.9930,177.7168,332.5306,27.5550,0,U,39074,999,61735,.53823E-4,-.94E-6,0
GLOBALSTAR M096,2013-005D,2026-06-08T10:32:28.254624,12.62265418,.0000201,52.0061,226.2298,162.0712,198.0162,0,U,39075,999,61628,.59448E-4,-.93E-6,0
GLOBALSTAR M078,2013-005E,2026-06-07T16:47:19.270176,12.62259561,.00005906,51.9894,312.5020,190.9080,169.1774,0,U,39076,999,61481,-.18767577E-3,-.137E-5,0
GLOBALSTAR M095,2013-005F,2026-06-08T02:56:00.484512,12.62263356,.00003866,52.0095,308.8064,121.3808,238.7096,0,U,39077,999,61472,.63135564E-4,-.92E-6,0
GLOBALSTAR M087,2022-064A,2026-06-07T23:27:05.117184,12.62268932,.00005603,51.9995,90.4912,17.7567,342.3319,0,U,52888,999,18997,.8395422E-4,-.89E-6,0
