GLOBALSTAR M069         
1 31573U 07020C   26159.53631838 -.00000084  00000+0  81530-4 0  9991
2 31573  52.0042 276.6118 0002510 130.2556 313.1798 12.23470905877743
GLOBALSTAR M072         
1 31574U 07020D   26159.08065385 -.00000069  00000+0  20806-3 0  9991
2 31574  51.9909 124.4888 0001373 306.8467 133.3638 11.91658483873896
GLOBALSTAR M066         
1 32265U 07048C   26158.98196377 -.00000119  00000+0 -21078-3 0  9992
2 32265  51.9587  84.3367 0005313  24.4172  56.6252 12.30388743859094
GLOBALSTAR M079         
1 37188U 10054A   26159.11315969 -.00000092  00000+0  63574-4 0  9995
2 37188  52.0016 136.2918 0000487   0.5369  78.3475 12.62265970721403
GLOBALSTAR M074         
1 37189U 10054B   26159.20423487 -.00000097  00000+0  38127-4 0  9992
2 37189  51.9993 135.2810 0000343  45.3805 327.7188 12.62268412722024
GLOBALSTAR M076         
1 37190U 10054C   26159.25043346 -.00000095  00000+0  50742-4 0  9996
2 37190  52.0006 135.3424 0000540  31.9161  71.5071 12.62261826721745
GLOBALSTAR M077         
1 37191U 10054D   26158.90242632 -.00000081  00000+0 -59370-4 0  9999
2 37191  51.9933 202.8631 0002880 155.8900  14.9562 11.67547620720051
GLOBALSTAR M075         
1 37192U 10054E   26159.34340891 -.00000103  00000+0  31260-5 0  9998
2 37192  51.9920 177.1208 0000054 152.8748 312.9585 12.62267304720825
GLOBALSTAR M073         
1 37193U 10054F   26159.51901027 -.00000099  00000+0  29414-4 0  9993
2 37193  52.0059  90.6776 0000752  30.3304 152.5247 12.62262138722839
GLOBALSTAR M083         
1 37739U 11033A   26159.45027711 -.00000108  00000+0 -21938-4 0  9994
2 37739  51.9873  39.1278 0000828  55.0686 116.7097 12.62262852691847
GLOBALSTAR M088         
1 37740U 11033B   26159.18672167 -.00000087  00000+0  92801-4 0  9999
2 37740  52.0229 306.3380 0000842 112.7304  59.0579 12.62268578687359
GLOBALSTAR M091         
1 37741U 11033C   26159.49632741 -.00000092  00000+0  66362-4 0  9997
2 37741  52.0004 268.3737 0000517 137.4442 303.0138 12.62263741688182
GLOBALSTAR M085         
1 37742U 11033D   26159.48823634 -.00000097  00000+0  39541-4 0  9994
2 37742  52.0112 219.6834 0000198 183.0147 280.7564 12.62263924688697
GLOBALSTAR M081         
1 37743U 11033E   26159.51571833 -.00000101  00000+0  14917-4 0  9996
2 37743  51.9942 222.0459 0000239 129.7042 338.5925 12.62264781688847
GLOBALSTAR M089         
1 37744U 11033F   26159.23203600 -.00000093  00000+0  61663-4 0  9990
2 37744  51.9904 177.0697 0000371 103.3264 336.0423 12.62266995689655
GLOBALSTAR M084         
1 38040U 11080A   26159.42615512 -.00000101  00000+0  16057-4 0  9999
2 38040  52.0026  43.9537 0001024  72.4812 109.3735 12.62267499667650
GLOBALSTAR M080         
1 38041U 11080B   26159.39659255 -.00000098  00000+0  29579-4 0  9996
2 38041  52.0075  45.7586 0000288  67.4343 110.0133 12.62269277667773
GLOBALSTAR M082         
1 38042U 11080C   26158.85798611 -.00000091  00000+0  72851-4 0  9991
2 38042  52.0098   2.8982 0000541  85.6173  93.2689 12.62269896668415
GLOBALSTAR M092         
1 38043U 11080D   26159.54513586 -.00000092  00000+0  64220-4 0  9997
2 38043  52.0084  91.2024 0000545  51.4535 130.4591 12.62266878666957
GLOBALSTAR M090         
1 38044U 11080E   26158.84809887 -.00000090  00000+0  76868-4 0  9991
2 38044  52.0144 356.8814 0000801  79.5657 293.3025 12.62268990668537
GLOBALSTAR M086         
1 38045U 11080F   26159.34314815 -.00000086  00000+0  10051-3 0  9996
2 38045  51.9915 355.3189 0001632  51.8886 312.0431 12.62286562668547
GLOBALSTAR M097         
1 39072U 13005A   26159.45250024 -.00000124  00000+0 -11130-3 0  9992
2 39072  52.0053 269.9252 0000470 121.1355 238.9558 12.62247114615802
GLOBALSTAR M093         
1 39073U 13005B   26159.42584237 -.00000094  00000+0  54862-4 0  9991
2 39073  52.0110 263.3498 0000325 107.3821 252.7081 12.62265703615753
GLOBALSTAR M094         
1 39074U 13005C   26159.34657959 -.00000094  00000+0  53823-4 0  9991
2 39074  51.9930 177.7168 0000186 332.5306  27.5550 12.62268544617352
GLOBALSTAR M096         
1 39075U 13005D   26159.43921591 -.00000093  00000+0  59448-4 0  9996
2 39075  52.0061 226.2298 0000201 162.0712 198.0162 12.62265418616280
GLOBALSTAR M078         
1 39076U 13005E   26158.69952859 -.00000137  00000+0 -18768-3 0  9994
2 39076  51.9894 312.5020 0000590 190.9080 169.1774 12.62259561614811
GLOBALSTAR M095         
1 39077U 13005F   26159.12222783 -.00000092  00000+0  63136-4 0  9999
2 39077  52.0095 308.8064 0000386 121.3808 238.7096 12.62263356614729
GLOBALSTAR M087         
1 52888U 22064A   26158.97714256 -.00000089  00000+0  83954-4 0  9998
2 52888  51.9995  90.4912 0000560  17.7567 342.3319 12.62268932189970
